[{"OBJECT_NAME":"STARLINK-30125","OBJECT_ID":"2023-067P","EPOCH":"2026-03-09T21:51:10.089216","MEAN_MOTION":15.2757641,"ECCENTRICITY":9.573e-5,"INCLINATION":42.9986,"RA_OF_ASC_NODE":269.8264,"ARG_OF_PERICENTER":273.72,"MEAN_ANOMALY":86.3542,"EPHEMERIS_TYPE":0,"CLASSIFICATION_TYPE":"U","NORAD_CAT_ID":56701,"ELEMENT_SET_NO":999,"REV_AT_EPOCH":15573,"BSTAR":6.9363402e-5,"MEAN_MOTION_DOT":1.647e-5,"MEAN_MOTION_DDOT":0},{"OBJECT_NAME":"TRANSPORTER-1 OBJECT AA","OBJECT_ID":"2021-006AA","EPOCH":"2026-03-09T22:58:14.761920","MEAN_MOTION":15.29982294,"ECCENTRICITY":0.00086604,"INCLINATION":97.2381,"RA_OF_ASC_NODE":112.457,"ARG_OF_PERICENTER":185.709,"MEAN_ANOMALY":174.4054,"EPHEMERIS_TYPE":0,"CLASSIFICATION_TYPE":"U","NORAD_CAT_ID":47437,"ELEMENT_SET_NO":999,"REV_AT_EPOCH":28414,"BSTAR":0.0002197941,"MEAN_MOTION_DOT":6.312e-5,"MEAN_MOTION_DDOT":0}]
